NORAD_CAT_ID,OBJECT_NAME,OBJECT_TYPE,EPOCH,MEAN_MOTION,ECCENTRICITY,INCLINATION,RA_OF_ASC_NODE,ARG_OF_PERICENTER,MEAN_ANOMALY,BSTAR,MEAN_MOTION_DOT,MEAN_MOTION_DDOT,TLE_LINE0,TLE_LINE1,TLE_LINE2,SEMIMAJOR_AXIS,PERIOD,APOGEE,PERIGEE,DECAYED
55420.0,STARLINK-5604,PAYLOAD,2024-07-17 11:40:57,14.98327158,0.0002359,70.0011,117.8078,272.3643,87.7246,-6.9106e-05,-9.17e-06,0.0,0 STARLINK-5604,1 55420U 23014AF  24199.48677704 -.00000917  00000-0 -69106-4 0  9999,2 55420  70.0011 117.8078 0002359 272.3643  87.7246 14.98327158 81703,6950.202,96.107,573.706,570.427,0.0
55420.0,STARLINK-5604,PAYLOAD,2024-07-17 22:53:54,14.98319985,0.0002702,70.0009,116.6297,267.6049,92.4801,-7.0904e-05,-9.39e-06,0.0,0 STARLINK-5604,1 55420U 23014AF  24199.95410156 -.00000939  00000-0 -70904-4 0  9999,2 55420  70.0009 116.6297 0002702 267.6049  92.4801 14.98319985 82710,6950.224,96.108,573.967,570.211,0.0
55420.0,STARLINK-5604,PAYLOAD,2024-07-18 11:42:58,14.9832637,0.0002333,70.0025,115.2817,285.9665,74.1237,-5.4132e-05,-7.39e-06,0.0,0 STARLINK-5604,1 55420U 23014AF  24200.48818140 -.00000739  00000-0 -54132-4 0  9998,2 55420  70.0025 115.2817 0002333 285.9665  74.1237 14.98326370 81858,6950.204,96.107,573.691,570.448,0.0
55420.0,STARLINK-5604,PAYLOAD,2024-07-18 22:55:55,14.98325882,0.0002793,70.0008,114.1033,273.5416,86.5424,-4.6664e-05,-6.5e-06,0.0,0 STARLINK-5604,1 55420U 23014AF  24200.95550023 -.00000650  00000-0 -46664-4 0  9996,2 55420  70.0008 114.1033 0002793 273.5416  86.5424 14.98325882 82868,6950.206,96.107,574.012,570.129,0.0
55420.0,STARLINK-5604,PAYLOAD,2024-07-19 11:44:59,14.98334122,0.000259,70.0013,112.7582,271.0678,89.0184,-9.1619e-05,-1.186e-05,0.0,0 STARLINK-5604,1 55420U 23014AF  24201.48957616 -.00001186  00000-0 -91619-4 0  9999,2 55420  70.0013 112.7582 0002590 271.0678  89.0184 14.98334122 82009,6950.18,96.107,573.845,570.245,0.0
55420.0,STARLINK-5604,PAYLOAD,2024-07-19 22:57:55,14.98324105,0.0003049,70.0005,111.5803,270.87,89.2109,0.00014353,1.62e-05,0.0,0 STARLINK-5604,1 55420U 23014AF  24201.95689707  .00001620  00000-0  14353-3 0  9994,2 55420  70.0005 111.5803 0003049 270.8700  89.2109 14.98324105 83017,6950.211,96.107,574.195,569.957,0.0
55420.0,STARLINK-5604,PAYLOAD,2024-07-20 11:47:00,14.98333077,0.0003013,70.0006,110.2309,269.3871,90.6942,7.9564e-05,8.57e-06,0.0,0 STARLINK-5604,1 55420U 23014AF  24202.49097239  .00000857  00000-0  79564-4 0  9994,2 55420  70.0006 110.2309 0003013 269.3871  90.6942 14.98333077 82151,6950.183,96.107,574.142,569.954,0.0
55420.0,STARLINK-5604,PAYLOAD,2024-07-20 21:23:48,14.98326404,0.0002716,70.0006,109.2227,273.3312,86.7537,8.0306e-05,8.65e-06,0.0,0 STARLINK-5604,1 55420U 23014AF  24202.89153829  .00000865  00000-0  80306-4 0  9991,2 55420  70.0006 109.2227 0002716 273.3312  86.7537 14.98326404 83155,6950.204,96.107,573.957,570.181,0.0
55420.0,STARLINK-5604,PAYLOAD,2024-07-21 03:48:20,14.98333282,0.0002993,70.0001,108.5501,269.009,91.0726,5.0593e-05,5.11e-06,0.0,0 STARLINK-5604,1 55420U 23014AF  24203.15857402  .00000511  00000-0  50593-4 0  9992,2 55420  70.0001 108.5501 0002993 269.0090  91.0726 14.98333282 83194,6950.183,96.107,574.128,569.968,0.0
55420.0,STARLINK-5604,PAYLOAD,2024-07-21 19:49:41,14.98329049,0.0002947,70.0004,106.8668,269.0907,90.9914,2.3591e-05,1.88e-06,0.0,0 STARLINK-5604,1 55420U 23014AF  24203.82617746  .00000188  00000-0  23591-4 0  9999,2 55420  70.0004 106.8668 0002947 269.0907  90.9914 14.98329049 82358,6950.196,96.107,574.109,570.013,0.0
55420.0,STARLINK-5604,PAYLOAD,2024-07-21 21:25:49,14.98329874,0.0002897,70.0004,106.6985,269.3709,90.7118,6.477e-06,-1.6e-07,0.0,0 STARLINK-5604,1 55420U 23014AF  24203.89293748 -.00000016  00000-0  64770-5 0  9994,2 55420  70.0004 106.6985 0002897 269.3709  90.7118 14.98329874 83301,6950.193,96.107,574.072,570.045,0.0
55420.0,STARLINK-5604,PAYLOAD,2024-07-22 03:50:21,14.98335248,0.000287,70.0005,106.0253,267.9069,92.1761,2.3268e-05,1.85e-06,0.0,0 STARLINK-5604,1 55420U 23014AF  24204.15997324  .00000185  00000-0  23268-4 0  9997,2 55420  70.0005 106.0253 0002870 267.9069  92.1761 14.98335248 83344,6950.177,96.107,574.036,570.047,0.0
55420.0,STARLINK-5604,PAYLOAD,2024-07-22 23:03:58,14.98332684,0.0002752,70.0006,104.0051,271.2949,88.7895,9.3086e-05,1.018e-05,0.0,0 STARLINK-5604,1 55420U 23014AF  24204.96109157  .00001018  00000-0  93086-4 0  9996,2 55420  70.0006 104.0051 0002752 271.2949  88.7895 14.98332684 83466,6950.185,96.107,573.962,570.137,0.0
55420.0,STARLINK-5604,PAYLOAD,2024-07-23 03:52:21,14.98341344,0.0002657,70.0007,103.5016,266.4134,93.6722,0.00016901,1.925e-05,0.0,0 STARLINK-5604,1 55420U 23014AF  24205.16136326  .00001925  00000-0  16901-3 0  9994,2 55420  70.0007 103.5016 0002657 266.4134  93.6722 14.98341344 82554,6950.158,96.106,573.869,570.176,0.0
55420.0,STARLINK-5604,PAYLOAD,2024-07-23 10:16:54,14.98338815,0.0003064,69.9996,102.8229,285.0224,75.0596,-1.7303e-05,-3e-06,0.0,0 STARLINK-5604,1 55420U 23014AF  24205.42840862 -.00000300  00000-0 -17303-4 0  9996,2 55420  69.9996 102.8229 0003064 285.0224  75.0596 14.98338815 82592,6950.166,96.106,574.16,569.901,0.0
55420.0,STARLINK-5604,PAYLOAD,2024-07-24 03:54:25,14.98279148,0.0002184,70.0038,100.9742,281.7256,78.3657,0.00058969,6.941e-05,0.0,0 STARLINK-5604,1 55420U 23014AF  24206.16279950  .00006941  00000-0  58969-3 0  9999,2 55420  70.0038 100.9742 0002184 281.7256  78.3657 14.98279148 82701,6950.35,96.11,573.733,570.697,0.0
55420.0,STARLINK-5604,PAYLOAD,2024-07-25 02:20:15,14.98344225,0.0002851,70.0005,98.6222,267.9342,92.1491,1.7438e-05,1.15e-06,0.0,0 STARLINK-5604,1 55420U 23014AF  24207.09740507  .00000115  00000-0  17438-4 0  9997,2 55420  70.0005  98.6222 0002851 267.9342  92.1491 14.98344225 82848,6950.149,96.106,573.995,570.032,0.0
55420.0,STARLINK-5604,PAYLOAD,2024-07-25 16:45:29,14.98324794,0.0002855,70.001,97.1077,271.7995,88.2837,0.00011435,1.271e-05,0.0,0 STARLINK-5604,1 55420U 23014AF  24207.69825536  .00001271  00000-0  11435-3 0  9993,2 55420  70.0010  97.1077 0002855 271.7995  88.2837 14.98324794 82936,6950.209,96.107,574.058,570.09,0.0
55420.0,STARLINK-5604,PAYLOAD,2024-07-26 15:11:21,14.98335921,0.0002956,70.0004,94.7462,280.799,79.2836,2.1606e-05,1.65e-06,0.0,0 STARLINK-5604,1 55420U 23014AF  24208.63288987  .00000165  00000-0  21606-4 0  9994,2 55420  70.0004  94.7462 0002956 280.7990  79.2836 14.98335921 84011,6950.175,96.107,574.094,569.985,0.0
55420.0,STARLINK-5604,PAYLOAD,2024-07-27 21:37:55,14.9832698,0.0003049,70.0003,91.5489,275.6073,84.4738,4.5072e-05,4.45e-06,0.0,0 STARLINK-5604,1 55420U 23014AF  24209.90133243  .00000445  00000-0  45072-4 0  9993,2 55420  70.0003  91.5489 0003049 275.6073  84.4738 14.98326980 84208,6950.202,96.107,574.186,569.948,0.0
55420.0,STARLINK-5604,PAYLOAD,2024-07-28 02:26:19,14.9832904,0.0003145,69.9998,91.0445,275.8345,84.2456,2.5348e-05,2.09e-06,0.0,0 STARLINK-5604,1 55420U 23014AF  24210.10161187  .00000209  00000-0  25348-4 0  9997,2 55420  69.9998  91.0445 0003145 275.8345  84.2456 14.98329040 83299,6950.196,96.107,574.247,569.875,0.0
55420.0,STARLINK-5604,PAYLOAD,2024-07-28 21:39:56,14.98327133,0.000307,70.0001,89.0236,272.4494,87.6313,-3.8892e-05,-5.57e-06,0.0,0 STARLINK-5604,1 55420U 23014AF  24210.90273567 -.00000557  00000-0 -38892-4 0  9997,2 55420  70.0001  89.0236 0003070 272.4494  87.6313 14.98327133 84355,6950.202,96.107,574.2,569.933,0.0
55420.0,STARLINK-5604,PAYLOAD,2024-07-29 02:28:20,14.98330448,0.0002945,70.0002,88.5193,270.424,89.6581,2.4121e-05,1.95e-06,0.0,0 STARLINK-5604,1 55420U 23014AF  24211.10301197  .00000195  00000-0  24121-4 0  9997,2 55420  70.0002  88.5193 0002945 270.4240  89.6581 14.98330448 83440,6950.192,96.107,574.103,570.01,0.0
55420.0,STARLINK-5604,PAYLOAD,2024-07-29 08:52:52,14.98329585,0.0002967,70.0001,87.8462,269.1243,90.9576,9.5094e-05,1.042e-05,0.0,0 STARLINK-5604,1 55420U 23014AF  24211.37004945  .00001042  00000-0  95094-4 0  9996,2 55420  70.0001  87.8462 0002967 269.1243  90.9576 14.98329585 84420,6950.194,96.107,574.121,569.997,0.0
55420.0,STARLINK-5604,PAYLOAD,2024-07-29 21:41:56,14.98332872,0.0003014,70.0,86.4999,266.7329,93.3485,0.00012182,1.361e-05,0.0,0 STARLINK-5604,1 55420U 23014AF  24211.90412646  .00001361  00000-0  12182-3 0  9996,2 55420  70.0000  86.4999 0003014 266.7329  93.3485 14.98332872 84509,6950.184,96.107,574.144,569.954,0.0
55420.0,STARLINK-5604,PAYLOAD,2024-07-30 00:54:12,14.98335663,0.0002959,70.0,86.1631,267.6731,92.4089,0.00014888,1.684e-05,0.0,0 STARLINK-5604,1 55420U 23014AF  24212.03764387  .00001684  00000-0  14888-3 0  9996,2 55420  70.0000  86.1631 0002959 267.6731  92.4089 14.98335663 83581,6950.175,96.107,574.097,569.984,0.0
55420.0,STARLINK-5604,PAYLOAD,2024-07-30 08:54:53,14.98331941,0.0002962,69.9999,85.3215,268.8667,91.2153,9.4261e-05,1.032e-05,0.0,0 STARLINK-5604,1 55420U 23014AF  24212.37144694  .00001032  00000-0  94261-4 0  9997,2 55420  69.9999  85.3215 0002962 268.8667  91.2153 14.98331941 84573,6950.187,96.107,574.111,569.993,0.0
55420.0,STARLINK-5604,PAYLOAD,2024-07-30 21:43:57,14.98330277,0.0003287,69.9997,83.976,275.7054,84.373,4.4484e-05,4.38e-06,0.0,0 STARLINK-5604,1 55420U 23014AF  24212.90552953  .00000438  00000-0  44484-4 0  9998,2 55420  69.9997  83.9760 0003287 275.7054  84.3730 14.98330277 83718,6950.192,96.107,574.342,569.773,0.0
55420.0,STARLINK-5604,PAYLOAD,2024-07-30 23:20:05,14.98328641,0.0003041,69.9995,83.8078,270.6178,89.4633,9.5493e-05,1.047e-05,0.0,0 STARLINK-5604,1 55420U 23014AF  24212.97228910  .00001047  00000-0  95493-4 0  9991,2 55420  69.9995  83.8078 0003041 270.6178  89.4633 14.98328641 84661,6950.197,96.107,574.176,569.949,0.0
55420.0,STARLINK-5604,PAYLOAD,2024-07-31 00:56:13,14.98329813,0.0002943,69.9996,83.6397,270.3276,89.7546,0.0001151,1.281e-05,0.0,0 STARLINK-5604,1 55420U 23014AF  24213.03904800  .00001281  00000-0  11510-3 0  9995,2 55420  69.9996  83.6397 0002943 270.3276  89.7546 14.98329813 84679,6950.193,96.107,574.104,570.013,0.0
